OBJECT_NAME,OBJECT_ID,EPOCH,MEAN_MOTION,ECCENTRICITY,INCLINATION,RA_OF_ASC_NODE,ARG_OF_PERICENTER,MEAN_ANOMALY,EPHEMERIS_TYPE,CLASSIFICATION_TYPE,NORAD_CAT_ID,ELEMENT_SET_NO,REV_AT_EPOCH,BSTAR,MEAN_MOTION_DOT,MEAN_MOTION_DDOT
QIANFAN-238,2026-155V,2026-07-18T19:11:05.313984,14.26786012,.0030485,89.0064,60.5354,211.4462,148.4910,0,U,69867,999,189,.63035E-4,.168E-5,0
CZ-8A R/B,2026-155W,2026-07-18T21:07:40.416960,14.48271159,.010645,88.9656,60.4466,90.7210,270.6194,0,U,69868,999,192,.44744E-4,.199E-5,0
STARLINK-37886,2026-157A,2026-07-18T20:00:01.999008,15.80921615,.0001009,53.1591,277.5992,65.6430,229.7603,0,U,69943,999,274,-.55276E-3,-.108676E-2,0
STARLINK-37937,2026-157B,2026-07-18T20:00:01.999008,15.80900139,.0001342,53.1591,277.5806,61.9835,242.5031,0,U,69944,999,274,-.27017E-3,-.53759E-3,0
STARLINK-37903,2026-157C,2026-07-18T20:00:01.999008,15.80913281,.0001083,53.1589,277.5710,79.0396,229.9759,0,U,69945,999,274,-.47204E-3,-.93039E-3,0
STARLINK-37905,2026-157D,2026-07-18T20:00:01.999008,15.80912536,.0000481,53.1610,277.5308,76.1197,252.1676,0,U,69946,999,274,-.35473E-3,-.70267E-3,0
STARLINK-37904,2026-157E,2026-07-18T20:00:01.999008,15.80977746,.0000611,53.1607,277.5228,60.8981,271.3056,0,U,69947,999,274,-.27023E-3,-.53956E-3,0
STARLINK-37891,2026-157F,2026-07-18T20:00:01.999008,15.80899108,.0000736,53.1607,277.5138,62.3268,274.1592,0,U,69948,999,274,-.25036E-3,-.49885E-3,0
STARLINK-37923,2026-157G,2026-07-18T20:00:01.999008,15.80903421,.0000809,53.1593,277.4787,69.5631,284.0300,0,U,69949,999,274,-.29928E-3,-.59443E-3,0
STARLINK-37895,2026-157H,2026-07-18T20:00:01.999008,15.80899630,.0001089,53.1591,277.4628,68.4946,292.5481,0,U,69950,999,274,-.18277E-3,-.36663E-3,0
STARLINK-37841,2026-157J,2026-07-18T20:00:01.999008,15.80915822,.0001275,53.1593,277.4389,73.7312,298.7494,0,U,69951,999,274,-.46428E-3,-.9155E-3,0
STARLINK-37899,2026-157K,2026-07-18T20:00:01.999008,15.80882582,.0000581,53.1596,277.4160,79.1386,304.4933,0,U,69952,999,274,-.18656E-3,-.37375E-3,0
STARLINK-37900,2026-157L,2026-07-18T20:00:01.999008,15.80882934,.0001419,53.1594,277.4080,77.6670,309.8058,0,U,69953,999,274,-.23624E-3,-.47096E-3,0
STARLINK-37882,2026-157M,2026-07-18T20:00:01.999008,15.80895701,.0001312,53.1595,277.3853,64.6865,333.5995,0,U,69954,999,274,-.33758E-3,-.66884E-3,0
STARLINK-37928,2026-157N,2026-07-18T20:00:01.999008,15.80908893,.0000977,53.1594,277.3841,66.7098,332.2606,0,U,69955,999,274,-.52742E-3,-.103724E-2,0
STARLINK-37824,2026-157P,2026-07-18T20:00:01.999008,15.80829628,.0001314,53.1594,277.3812,101.0715,299.2841,0,U,69956,999,274,.58578E-4,.10854E-3,0
STARLINK-37919,2026-157Q,2026-07-18T20:00:01.999008,15.80896218,.0000694,53.1593,277.3792,63.4373,337.9365,0,U,69957,999,274,-.35595E-3,-.70453E-3,0
STARLINK-37964,2026-157R,2026-07-18T20:00:01.999008,15.80835258,.0000252,53.1594,277.3656,77.0815,330.7314,0,U,69958,999,274,.64809E-4,.1209E-3,0
STARLINK-37907,2026-157S,2026-07-18T20:00:01.999008,15.80888718,.000143,53.1594,277.3447,50.1964,7.7360,0,U,69959,999,274,-.18956E-3,-.37977E-3,0
STARLINK-37901,2026-157T,2026-07-18T20:00:01.999008,15.80883674,.0000721,53.1592,277.3313,71.6201,352.9366,0,U,69960,999,274,-.24605E-3,-.49008E-3,0
STARLINK-37910,2026-157U,2026-07-18T20:00:01.999008,15.80954942,.0000832,53.1592,277.3123,54.2279,19.3608,0,U,69961,999,274,-.894E-3,-.174286E-2,0
STARLINK-37925,2026-157V,2026-07-18T20:00:01.999008,15.80942762,.0000784,53.1593,277.3081,27.8529,47.7128,0,U,69962,999,274,-.85013E-3,-.165834E-2,0
STARLINK-37931,2026-157W,2026-07-18T20:00:01.999008,15.80905116,.000039,53.1593,277.3013,83.6909,355.1502,0,U,69963,999,274,-.56162E-3,-.110294E-2,0
STARLINK-37914,2026-157X,2026-07-18T20:00:01.999008,15.81357402,.0000894,53.1590,277.2667,84.7209,10.4532,0,U,69964,999,274,-.39217E-2,-.72886E-2,0
STARLINK-37840,2026-157Y,2026-07-18T20:00:01.999008,15.83287475,.0001059,53.1587,277.2358,45.0985,65.1450,0,U,69965,999,274,-.12118E-1,-.2326349E-1,0
STARLINK-37894,2026-157Z,2026-07-18T20:00:01.999008,15.81750331,.0001055,53.1590,277.2465,68.4843,36.5124,0,U,69966,999,274,-.65697E-2,-.1201289E-1,0
STARLINK-37875,2026-157AA,2026-07-18T20:00:01.999008,15.82361514,.0000965,53.1586,277.2263,50.6447,64.0453,0,U,69967,999,274,-.99536E-2,-.1847095E-1,0
STARLINK-36218,2026-157AB,2026-07-18T20:00:01.999008,15.83288362,.0001365,53.1584,277.2012,52.9945,73.5898,0,U,69968,999,239,-.11648E-1,-.2196742E-1,0
STARLINK-37921,2026-157AC,2026-07-18T20:00:01.999008,15.83786640,.0001308,53.1585,277.1659,53.2172,90.3354,0,U,69969,999,274,-.11253E-1,-.2177332E-1,0
STARLINK-37896,2026-157AD,2026-07-18T20:00:01.999008,15.83731446,.0001208,53.1584,277.1633,72.1150,72.6352,0,U,69970,999,274,-.11096E-1,-.2146536E-1,0
