QIANFAN-238             
1 69867U 26155V   26199.79936706  .00000168  00000+0  63035-4 0  9994
2 69867  89.0064  60.5354 0030485 211.4462 148.4910 14.26786012  1890
CZ-8A R/B               
1 69868U 26155W   26199.88032890  .00000199  00000+0  44744-4 0  9996
2 69868  88.9656  60.4466 0106450  90.7210 270.6194 14.48271159  1925
STARLINK-37886          
1 69943U 26157A   26199.83335647 -.00108676  00000+0 -55276-3 0  9995
2 69943  53.1591 277.5992 0001009  65.6430 229.7603 15.80921615  2742
STARLINK-37937          
1 69944U 26157B   26199.83335647 -.00053759  00000+0 -27017-3 0  9999
2 69944  53.1591 277.5806 0001342  61.9835 242.5031 15.80900139  2741
STARLINK-37903          
1 69945U 26157C   26199.83335647 -.00093039  00000+0 -47204-3 0  9995
2 69945  53.1589 277.5710 0001083  79.0396 229.9759 15.80913281  2745
STARLINK-37905          
1 69946U 26157D   26199.83335647 -.00070267  00000+0 -35473-3 0  9999
2 69946  53.1610 277.5308 0000481  76.1197 252.1676 15.80912536  2740
STARLINK-37904          
1 69947U 26157E   26199.83335647 -.00053956  00000+0 -27023-3 0  9998
2 69947  53.1607 277.5228 0000611  60.8981 271.3056 15.80977746  2743
STARLINK-37891          
1 69948U 26157F   26199.83335647 -.00049885  00000+0 -25036-3 0  9997
2 69948  53.1607 277.5138 0000736  62.3268 274.1592 15.80899108  2748
STARLINK-37923          
1 69949U 26157G   26199.83335647 -.00059443  00000+0 -29928-3 0  9993
2 69949  53.1593 277.4787 0000809  69.5631 284.0300 15.80903421  2747
STARLINK-37895          
1 69950U 26157H   26199.83335647 -.00036663  00000+0 -18277-3 0  9999
2 69950  53.1591 277.4628 0001089  68.4946 292.5481 15.80899630  2749
STARLINK-37841          
1 69951U 26157J   26199.83335647 -.00091550  00000+0 -46428-3 0  9995
2 69951  53.1593 277.4389 0001275  73.7312 298.7494 15.80915822  2743
STARLINK-37899          
1 69952U 26157K   26199.83335647 -.00037375  00000+0 -18656-3 0  9993
2 69952  53.1596 277.4160 0000581  79.1386 304.4933 15.80882582  2743
STARLINK-37900          
1 69953U 26157L   26199.83335647 -.00047096  00000+0 -23624-3 0  9996
2 69953  53.1594 277.4080 0001419  77.6670 309.8058 15.80882934  2741
STARLINK-37882          
1 69954U 26157M   26199.83335647 -.00066884  00000+0 -33758-3 0  9992
2 69954  53.1595 277.3853 0001312  64.6865 333.5995 15.80895701  2744
STARLINK-37928          
1 69955U 26157N   26199.83335647 -.00103724  00000+0 -52742-3 0  9992
2 69955  53.1594 277.3841 0000977  66.7098 332.2606 15.80908893  2740
STARLINK-37824          
1 69956U 26157P   26199.83335647  .00010854  00000+0  58578-4 0  9996
2 69956  53.1594 277.3812 0001314 101.0715 299.2841 15.80829628  2745
STARLINK-37919          
1 69957U 26157Q   26199.83335647 -.00070453  00000+0 -35595-3 0  9993
2 69957  53.1593 277.3792 0000694  63.4373 337.9365 15.80896218  2743
STARLINK-37964          
1 69958U 26157R   26199.83335647  .00012090  00000+0  64809-4 0  9996
2 69958  53.1594 277.3656 0000252  77.0815 330.7314 15.80835258  2748
STARLINK-37907          
1 69959U 26157S   26199.83335647 -.00037977  00000+0 -18956-3 0  9991
2 69959  53.1594 277.3447 0001430  50.1964   7.7360 15.80888718  2744
STARLINK-37901          
1 69960U 26157T   26199.83335647 -.00049008  00000+0 -24605-3 0  9999
2 69960  53.1592 277.3313 0000721  71.6201 352.9366 15.80883674  2747
STARLINK-37910          
1 69961U 26157U   26199.83335647 -.00174286  00000+0 -89400-3 0  9991
2 69961  53.1592 277.3123 0000832  54.2279  19.3608 15.80954942  2742
STARLINK-37925          
1 69962U 26157V   26199.83335647 -.00165834  00000+0 -85013-3 0  9997
2 69962  53.1593 277.3081 0000784  27.8529  47.7128 15.80942762  2746
STARLINK-37931          
1 69963U 26157W   26199.83335647 -.00110294  00000+0 -56162-3 0  9991
2 69963  53.1593 277.3013 0000390  83.6909 355.1502 15.80905116  2741
STARLINK-37914          
1 69964U 26157X   26199.83335647 -.00728860  00000+0 -39217-2 0  9997
2 69964  53.1590 277.2667 0000894  84.7209  10.4532 15.81357402  2741
STARLINK-37840          
1 69965U 26157Y   26199.83335647 -.02326349  00000+0 -12118-1 0  9996
2 69965  53.1587 277.2358 0001059  45.0985  65.1450 15.83287475  2740
STARLINK-37894          
1 69966U 26157Z   26199.83335647 -.01201289  00000+0 -65697-2 0  9992
2 69966  53.1590 277.2465 0001055  68.4843  36.5124 15.81750331  2746
STARLINK-37875          
1 69967U 26157AA  26199.83335647 -.01847095  00000+0 -99536-2 0  9993
2 69967  53.1586 277.2263 0000965  50.6447  64.0453 15.82361514  2743
STARLINK-36218          
1 69968U 26157AB  26199.83335647 -.02196742  00000+0 -11648-1 0  9998
2 69968  53.1584 277.2012 0001365  52.9945  73.5898 15.83288362  2396
STARLINK-37921          
1 69969U 26157AC  26199.83335647 -.02177332  00000+0 -11253-1 0  9995
2 69969  53.1585 277.1659 0001308  53.2172  90.3354 15.83786640  2742
STARLINK-37896          
1 69970U 26157AD  26199.83335647 -.02146536  00000+0 -11096-1 0  9994
2 69970  53.1584 277.1633 0001208  72.1150  72.6352 15.83731446  2745
